{
  "type": "FeatureCollection",
  "features": [
    {
      "type": "Feature",
      "properties": {
        "norad_id": 66601,
        "name": "STARLINK-35978",
        "group": "last-30-days",
        "lat": -36.219124215913624,
        "lon": -157.28689339876755,
        "alt_km": 329.27789833494444,
        "timestamp": "2025-12-02T08:59:31.504830+00:00",
        "meta_object_name": "STARLINK-35978",
        "meta_object_id": "2025-270P",
        "meta_epoch": "2025-12-01T16:00:03.998880",
        "meta_mean_motion": 15.83480446,
        "meta_eccentricity": 0.0001673,
        "meta_inclination": 42.9985,
        "meta_ra_of_asc_node": 258.8705,
        "meta_arg_of_pericenter": 256.5646,
        "meta_mean_anomaly": 325.8265,
        "meta_ephemeris_type": 0,
        "meta_classification_type": "U",
        "meta_norad_cat_id": 66601,
        "meta_element_set_no": 999,
        "meta_rev_at_epoch": 246,
        "meta_bstar": -0.008029,
        "meta_mean_motion_dot": -0.01587438,
        "meta_mean_motion_ddot": 0,
        "tle_line1": "1 66601U 25270P   25335.66671295 -.01587438  00000+0 -80290-2 0  9993",
        "tle_line2": "2 66601  42.9985 258.8705 0001673 256.5646 325.8265 15.83480446  2460"
      },
      "geometry": {
        "type": "Point",
        "coordinates": [
          -157.28689339876755,
          -36.219124215913624
        ]
      }
    },
    {
      "type": "Feature",
      "properties": {
        "norad_id": 66602,
        "name": "STARLINK-36050",
        "group": "last-30-days",
        "lat": -35.277344794811,
        "lon": -154.87421767325313,
        "alt_km": 329.25392278311847,
        "timestamp": "2025-12-02T08:59:31.504842+00:00",
        "meta_object_name": "STARLINK-36050",
        "meta_object_id": "2025-270Q",
        "meta_epoch": "2025-12-01T16:00:03.998880",
        "meta_mean_motion": 15.83486522,
        "meta_eccentricity": 0.0001556,
        "meta_inclination": 42.9985,
        "meta_ra_of_asc_node": 258.865,
        "meta_arg_of_pericenter": 261.3844,
        "meta_mean_anomaly": 323.1918,
        "meta_ephemeris_type": 0,
        "meta_classification_type": "U",
        "meta_norad_cat_id": 66602,
        "meta_element_set_no": 999,
        "meta_rev_at_epoch": 252,
        "meta_bstar": -0.0080766,
        "meta_mean_motion_dot": -0.01595958,
        "meta_mean_motion_ddot": 0,
        "tle_line1": "1 66602U 25270Q   25335.66671295 -.01595958  00000+0 -80766-2 0  9998",
        "tle_line2": "2 66602  42.9985 258.8650 0001556 261.3844 323.1918 15.83486522  2528"
      },
      "geometry": {
        "type": "Point",
        "coordinates": [
          -154.87421767325313,
          -35.277344794811
        ]
      }
    },
    {
      "type": "Feature",
      "properties": {
        "norad_id": 66603,
        "name": "STARLINK-36048",
        "group": "last-30-days",
        "lat": -34.263762340746545,
        "lon": -152.46092836590813,
        "alt_km": 329.25616923297,
        "timestamp": "2025-12-02T08:59:31.504852+00:00",
        "meta_object_name": "STARLINK-36048",
        "meta_object_id": "2025-270R",
        "meta_epoch": "2025-12-01T16:00:03.998880",
        "meta_mean_motion": 15.8349415,
        "meta_eccentricity": 0.0001675,
        "meta_inclination": 42.9987,
        "meta_ra_of_asc_node": 258.8594,
        "meta_arg_of_pericenter": 259.5355,
        "meta_mean_anomaly": 327.2873,
        "meta_ephemeris_type": 0,
        "meta_classification_type": "U",
        "meta_norad_cat_id": 66603,
        "meta_element_set_no": 999,
        "meta_rev_at_epoch": 252,
        "meta_bstar": -0.0081665,
        "meta_mean_motion_dot": -0.01612047,
        "meta_mean_motion_ddot": 0,
        "tle_line1": "1 66603U 25270R   25335.66671295 -.01612047  00000+0 -81665-2 0  9997",
        "tle_line2": "2 66603  42.9987 258.8594 0001675 259.5355 327.2873 15.83494150  2527"
      },
      "geometry": {
        "type": "Point",
        "coordinates": [
          -152.46092836590813,
          -34.263762340746545
        ]
      }
    },
    {
      "type": "Feature",
      "properties": {
        "norad_id": 66604,
        "name": "STARLINK-35977",
        "group": "last-30-days",
        "lat": -33.383591972284336,
        "lon": -150.49525877618765,
        "alt_km": 329.28264452610347,
        "timestamp": "2025-12-02T08:59:31.504862+00:00",
        "meta_object_name": "STARLINK-35977",
        "meta_object_id": "2025-270S",
        "meta_epoch": "2025-12-01T16:00:03.998880",
        "meta_mean_motion": 15.83526926,
        "meta_eccentricity": 0.0001657,
        "meta_inclination": 42.9987,
        "meta_ra_of_asc_node": 258.855,
        "meta_arg_of_pericenter": 255.1952,
        "meta_mean_anomaly": 333.4134,
        "meta_ephemeris_type": 0,
        "meta_classification_type": "U",
        "meta_norad_cat_id": 66604,
        "meta_element_set_no": 999,
        "meta_rev_at_epoch": 262,
        "meta_bstar": -0.0081829,
        "meta_mean_motion_dot": -0.01617075,
        "meta_mean_motion_ddot": 0,
        "tle_line1": "1 66604U 25270S   25335.66671295 -.01617075  00000+0 -81829-2 0  9996",
        "tle_line2": "2 66604  42.9987 258.8550 0001657 255.1952 333.4134 15.83526926  2622"
      },
      "geometry": {
        "type": "Point",
        "coordinates": [
          -150.49525877618765,
          -33.383591972284336
        ]
      }
    },
    {
      "type": "Feature",
      "properties": {
        "norad_id": 66605,
        "name": "STARLINK-36052",
        "group": "last-30-days",
        "lat": -32.4600807121503,
        "lon": -148.5433265661357,
        "alt_km": 329.18252034914804,
        "timestamp": "2025-12-02T08:59:31.504872+00:00",
        "meta_object_name": "STARLINK-36052",
        "meta_object_id": "2025-270T",
        "meta_epoch": "2025-12-01T16:00:03.998880",
        "meta_mean_motion": 15.83557272,
        "meta_eccentricity": 0.0001695,
        "meta_inclination": 42.9987,
        "meta_ra_of_asc_node": 258.8505,
        "meta_arg_of_pericenter": 255.4158,
        "meta_mean_anomaly": 335.0133,
        "meta_ephemeris_type": 0,
        "meta_classification_type": "U",
        "meta_norad_cat_id": 66605,
        "meta_element_set_no": 999,
        "meta_rev_at_epoch": 262,
        "meta_bstar": -0.0082038,
        "meta_mean_motion_dot": -0.01622765,
        "meta_mean_motion_ddot": 0,
        "tle_line1": "1 66605U 25270T   25335.66671295 -.01622765  00000+0 -82038-2 0  9992",
        "tle_line2": "2 66605  42.9987 258.8505 0001695 255.4158 335.0133 15.83557272  2621"
      },
      "geometry": {
        "type": "Point",
        "coordinates": [
          -148.5433265661357,
          -32.4600807121503
        ]
      }
    },
    {
      "type": "Feature",
      "properties": {
        "norad_id": 66606,
        "name": "STARLINK-36063",
        "group": "last-30-days",
        "lat": -30.337833120566064,
        "lon": -144.41084672554734,
        "alt_km": 329.19260572587154,
        "timestamp": "2025-12-02T08:59:31.504882+00:00",
        "meta_object_name": "STARLINK-36063",
        "meta_object_id": "2025-270U",
        "meta_epoch": "2025-12-01T16:00:03.998880",
        "meta_mean_motion": 15.83600704,
        "meta_eccentricity": 0.0001705,
        "meta_inclination": 42.9988,
        "meta_ra_of_asc_node": 258.84,
        "meta_arg_of_pericenter": 255.3763,
        "meta_mean_anomaly": 339.1559,
        "meta_ephemeris_type": 0,
        "meta_classification_type": "U",
        "meta_norad_cat_id": 66606,
        "meta_element_set_no": 999,
        "meta_rev_at_epoch": 262,
        "meta_bstar": -0.0084163,
        "meta_mean_motion_dot": -0.01662219,
        "meta_mean_motion_ddot": 0,
        "tle_line1": "1 66606U 25270U   25335.66671295 -.01662219  00000+0 -84163-2 0  9992",
        "tle_line2": "2 66606  42.9988 258.8400 0001705 255.3763 339.1559 15.83600704  2626"
      },
      "geometry": {
        "type": "Point",
        "coordinates": [
          -144.41084672554734,
          -30.337833120566064
        ]
      }
    },
    {
      "type": "Feature",
      "properties": {
        "norad_id": 66607,
        "name": "STARLINK-35993",
        "group": "last-30-days",
        "lat": -31.34124478264624,
        "lon": -146.30879392445692,
        "alt_km": 329.3076391732684,
        "timestamp": "2025-12-02T08:59:31.504892+00:00",
        "meta_object_name": "STARLINK-35993",
        "meta_object_id": "2025-270V",
        "meta_epoch": "2025-12-01T16:00:03.998880",
        "meta_mean_motion": 15.83565253,
        "meta_eccentricity": 0.0001624,
        "meta_inclination": 42.9989,
        "meta_ra_of_asc_node": 258.8449,
        "meta_arg_of_pericenter": 254.1167,
        "meta_mean_anomaly": 338.55,
        "meta_ephemeris_type": 0,
        "meta_classification_type": "U",
        "meta_norad_cat_id": 66607,
        "meta_element_set_no": 999,
        "meta_rev_at_epoch": 252,
        "meta_bstar": -0.0083314,
        "meta_mean_motion_dot": -0.01645159,
        "meta_mean_motion_ddot": 0,
        "tle_line1": "1 66607U 25270V   25335.66671295 -.01645159  00000+0 -83314-2 0  9994",
        "tle_line2": "2 66607  42.9989 258.8449 0001624 254.1167 338.5500 15.83565253  2523"
      },
      "geometry": {
        "type": "Point",
        "coordinates": [
          -146.30879392445692,
          -31.34124478264624
        ]
      }
    }
  ]
}